OBJECT_NAME,OBJECT_ID,EPOCH,MEAN_MOTION,ECCENTRICITY,INCLINATION,RA_OF_ASC_NODE,ARG_OF_PERICENTER,MEAN_ANOMALY,EPHEMERIS_TYPE,CLASSIFICATION_TYPE,NORAD_CAT_ID,ELEMENT_SET_NO,REV_AT_EPOCH,BSTAR,MEAN_MOTION_DOT,MEAN_MOTION_DDOT
STARLINK-1042,2019-074AL,2026-07-12T09:09:44.447616,15.55763988,.00009934,53.0397,213.7545,52.5920,307.5180,0,U,44747,999,36944,.20264732E-3,.13764E-3,0
STARLINK-1043,2019-074AM,2026-07-12T13:54:34.996608,15.67084607,.0001751,53.0485,306.8122,359.0859,1.0153,0,U,44748,999,36813,.30564E-3,.32816E-3,0
STARLINK-1046,2019-074AQ,2026-07-12T15:25:44.026752,15.59934299,.0003163,53.0473,329.8896,231.7426,128.3302,0,U,44751,999,36781,.87318E-3,.71836E-3,0
STARLINK-1047,2019-074AR,2026-07-12T17:23:46.315104,15.35363620,.0001278,53.0693,280.6924,237.3992,122.6886,0,U,44752,999,36853,.10467E-2,.36265E-3,0
STARLINK-1048,2019-074AS,2026-07-12T14:56:34.977120,15.71055751,.0001833,53.0433,277.1102,135.7843,224.3321,0,U,44753,999,36854,.30572E-3,.38765E-3,0
STARLINK-1063,2019-074BH,2026-07-13T05:09:28.799424,15.53486224,.0002432,53.1544,344.8370,285.7201,74.3542,0,U,44768,999,36769,.55853E-3,.3576E-3,0
STARLINK-1067,2019-074BL,2026-07-13T00:00:02.000160,15.83907659,.0006082,53.0409,304.2086,333.7535,348.1254,0,U,44771,999,591,.18345E-3,.41248E-3,0
STARLINK-1068,2019-074BM,2026-07-13T04:24:33.545376,15.81372252,.0005572,53.0387,277.4679,344.7822,15.3031,0,U,44772,999,36858,.34897E-3,.70425E-3,0
JILIN-1 GAOFEN 2A,2019-075A,2026-07-13T04:43:24.071232,15.39979639,.0005371,97.4968,278.6058,2.7538,357.3736,0,U,44777,999,36888,.21345E-3,.8427E-4,0
NINGXIA-1 1,2019-076A,2026-07-13T04:34:31.308960,14.02041756,.0011603,45.0064,63.6465,280.8624,79.0904,0,U,44779,999,34150,.16381E-4,-.105E-5,0
NINGXIA-1 2,2019-076B,2026-07-13T04:11:50.650656,14.02020304,.0007289,45.0090,64.0634,274.3753,85.6249,0,U,44780,999,34150,-.106E-3,-.293E-5,0
NINGXIA-1 3,2019-076C,2026-07-13T05:31:08.147424,14.02007105,.0010503,45.0003,61.9916,269.6092,90.3539,0,U,44781,999,34151,.20569E-4,-.98E-6,0
NINGXIA-1 4,2019-076D,2026-07-13T05:11:24.976320,14.02073255,.0013224,45.0091,63.5066,249.4657,110.4758,0,U,44782,999,34147,.80474E-4,-.6E-7,0
NINGXIA-1 5,2019-076E,2026-07-13T04:52:22.374336,14.02090144,.0011419,45.0063,62.9235,271.7070,88.2456,0,U,44783,999,34142,.10234E-3,.28E-6,0
KL-ALPHA A,2019-077A,2026-07-13T04:01:00.336864,13.56045699,.0012583,88.9238,219.7232,42.0191,318.1926,0,U,44785,999,32925,.11489E-3,.93E-6,0
KL-ALPHA B,2019-077B,2026-07-13T04:13:36.087168,13.56004462,.0028636,88.9101,217.2762,75.4447,284.9880,0,U,44786,999,32870,.16284E-3,.127E-5,0
BEIDOU-3 M22,2019-078A,2026-07-12T20:33:18.703872,1.86227319,.0005691,53.9110,298.9248,49.8475,310.2295,0,U,44793,999,4512,0,-.62E-6,0
BEIDOU-3 M21,2019-078B,2026-07-12T11:01:29.008992,1.86227618,.0003703,53.8852,298.8992,52.5088,307.5509,0,U,44794,999,4512,0,-.62E-6,0
TIBA-1,2019-080A,2026-07-13T03:22:02.547264,1.00269696,.0001837,0.0512,10.1204,116.1981,250.6908,0,U,44800,999,2431,0,.154E-5,0
INMARSAT GX5,2019-080B,2026-07-12T22:07:02.980128,1.00272798,.0001959,0.0437,35.4675,73.5798,164.5479,0,U,44801,999,704,0,.74E-6,0
CARTOSAT-3,2019-081A,2026-07-13T04:09:30.247200,15.19316618,.0013207,97.4300,255.6204,67.6622,292.6011,0,U,44804,999,36741,.15252E-3,.3159E-4,0
GAOFEN-12 01,2019-082A,2026-07-13T04:02:35.460672,14.80478743,.0001065,97.8108,199.8629,53.9327,306.1984,0,U,44819,999,35793,.3189E-4,.193E-5,0
JILIN-1 GAOFEN 2B,2019-086A,2026-07-13T03:15:59.311296,15.20986316,.0013064,97.4878,265.9673,223.4196,136.6012,0,U,44836,999,36443,.17283E-3,.3768E-4,0
COSMOS 2544 [GLONASS-M],2019-088A,2026-07-11T10:20:31.607232,2.13103003,.00123436,65.5781,72.9223,255.3717,104.5561,0,U,44850,999,5123,0,-.19E-6,0
RISAT-2BR1,2019-089F,2026-07-12T19:42:03.097152,15.01152988,.0010017,36.9614,319.5174,26.1216,334.0030,0,U,44857,999,36105,.14287E-3,.1787E-4,0
IHOPSAT-TD,2019-089H,2026-07-12T12:13:58.306368,15.11945340,.0004031,36.9662,245.7692,91.3730,268.7478,0,U,44859,999,36182,.80264E-4,.1316E-4,0
BEIDOU-3 M19,2019-090A,2026-07-12T08:38:39.850944,1.86231323,.00168515,56.5807,61.9598,297.6742,193.4156,0,U,44864,999,4470,0,-.41E-6,0
BEIDOU-3 M20,2019-090B,2026-07-12T06:03:50.694912,1.86231124,.0014506,56.5819,61.9971,312.8069,195.7820,0,U,44865,999,4468,0,-.41E-6,0
JCSAT-18 (KACIFIC 1),2019-091A,2026-07-12T19:21:26.855712,1.00273107,.000041,0.0465,228.9604,15.3239,126.7699,0,U,44868,999,2426,0,-.201E-5,0
CSG-1,2019-092A,2026-07-13T04:16:14.606976,14.82155876,.0001487,97.8893,17.4048,89.8748,270.2636,0,U,44873,999,35532,.31501E-4,.199E-5,0
CHEOPS,2019-092B,2026-07-12T11:26:05.388000,14.61981530,.00111007,98.1506,21.3913,27.2306,332.9476,0,U,44874,999,34959,.38271897E-4,.145E-5,0
