STARLINK-1042           
1 44747U 19074AL  26193.38176444  .00013764  00000+0  20265-3 0  9993
2 44747  53.0397 213.7545 0000993  52.5920 307.5180 15.55763988369443
STARLINK-1043           
1 44748U 19074AM  26193.57957172  .00032816  00000+0  30564-3 0  9992
2 44748  53.0485 306.8122 0001751 359.0859   1.0153 15.67084607368134
STARLINK-1046           
1 44751U 19074AQ  26193.64287068  .00071836  00000+0  87318-3 0  9998
2 44751  53.0473 329.8896 0003163 231.7426 128.3302 15.59934299367818
STARLINK-1047           
1 44752U 19074AR  26193.72484161  .00036265  00000+0  10467-2 0  9998
2 44752  53.0693 280.6924 0001278 237.3992 122.6886 15.35363620368536
STARLINK-1048           
1 44753U 19074AS  26193.62262705  .00038765  00000+0  30572-3 0  9993
2 44753  53.0433 277.1102 0001833 135.7843 224.3321 15.71055751368549
STARLINK-1063           
1 44768U 19074BH  26194.21491666  .00035760  00000+0  55853-3 0  9996
2 44768  53.1544 344.8370 0002432 285.7201  74.3542 15.53486224367694
STARLINK-1067           
1 44771U 19074BL  26194.00002315  .00041248  00000+0  18345-3 0  9999
2 44771  53.0409 304.2086 0006082 333.7535 348.1254 15.83907659  5919
STARLINK-1068           
1 44772U 19074BM  26194.18372159  .00070425  00000+0  34897-3 0  9994
2 44772  53.0387 277.4679 0005572 344.7822  15.3031 15.81372252368582
JILIN-1 GAOFEN 2A       
1 44777U 19075A   26194.19680638  .00008427  00000+0  21345-3 0  9992
2 44777  97.4968 278.6058 0005371   2.7538 357.3736 15.39979639368889
NINGXIA-1 1             
1 44779U 19076A   26194.19064015 -.00000105  00000+0  16381-4 0  9991
2 44779  45.0064  63.6465 0011603 280.8624  79.0904 14.02041756341505
NINGXIA-1 2             
1 44780U 19076B   26194.17489179 -.00000293  00000+0 -10600-3 0  9999
2 44780  45.0090  64.0634 0007289 274.3753  85.6249 14.02020304341506
NINGXIA-1 3             
1 44781U 19076C   26194.22995541 -.00000098  00000+0  20569-4 0  9999
2 44781  45.0003  61.9916 0010503 269.6092  90.3539 14.02007105341516
NINGXIA-1 4             
1 44782U 19076D   26194.21626130 -.00000006  00000+0  80474-4 0  9994
2 44782  45.0091  63.5066 0013224 249.4657 110.4758 14.02073255341475
NINGXIA-1 5             
1 44783U 19076E   26194.20303674  .00000028  00000+0  10234-3 0  9998
2 44783  45.0063  62.9235 0011419 271.7070  88.2456 14.02090144341425
KL-ALPHA A              
1 44785U 19077A   26194.16736501  .00000093  00000+0  11489-3 0  9990
2 44785  88.9238 219.7232 0012583  42.0191 318.1926 13.56045699329259
KL-ALPHA B              
1 44786U 19077B   26194.17611212  .00000127  00000+0  16284-3 0  9999
2 44786  88.9101 217.2762 0028636  75.4447 284.9880 13.56004462328701
BEIDOU-3 M22            
1 44793U 19078A   26193.85646648 -.00000062  00000+0  00000+0 0  9997
2 44793  53.9110 298.9248 0005691  49.8475 310.2295  1.86227319 45121
BEIDOU-3 M21            
1 44794U 19078B   26193.45936353 -.00000062  00000+0  00000+0 0  9999
2 44794  53.8852 298.8992 0003703  52.5088 307.5509  1.86227618 45121
TIBA-1                  
1 44800U 19080A   26194.14030726  .00000154  00000+0  00000+0 0  9997
2 44800   0.0512  10.1204 0001837 116.1981 250.6908  1.00269696 24319
INMARSAT GX5            
1 44801U 19080B   26193.92156227  .00000074  00000+0  00000+0 0  9999
2 44801   0.0437  35.4675 0001959  73.5798 164.5479  1.00272798  7049
CARTOSAT-3              
1 44804U 19081A   26194.17326675  .00003159  00000+0  15252-3 0  9993
2 44804  97.4300 255.6204 0013207  67.6622 292.6011 15.19316618367414
GAOFEN-12 01            
1 44819U 19082A   26194.16846598  .00000193  00000+0  31890-4 0  9992
2 44819  97.8108 199.8629 0001065  53.9327 306.1984 14.80478743357930
JILIN-1 GAOFEN 2B       
1 44836U 19086A   26194.13610314  .00003768  00000+0  17283-3 0  9997
2 44836  97.4878 265.9673 0013064 223.4196 136.6012 15.20986316364439
COSMOS 2544 [GLONASS-M] 
1 44850U 19088A   26192.43092138 -.00000019  00000+0  00000+0 0  9996
2 44850  65.5781  72.9223 0012343 255.3717 104.5561  2.13103003 51239
RISAT-2BR1              
1 44857U 19089F   26193.82086918  .00001787  00000+0  14287-3 0  9995
2 44857  36.9614 319.5174 0010017  26.1216 334.0030 15.01152988361054
IHOPSAT-TD              
1 44859U 19089H   26193.50970262  .00001316  00000+0  80264-4 0  9993
2 44859  36.9662 245.7692 0004031  91.3730 268.7478 15.11945340361825
BEIDOU-3 M19            
1 44864U 19090A   26193.36018346 -.00000041  00000+0  00000+0 0  9991
2 44864  56.5807  61.9598 0016851 297.6742 193.4156  1.86231323 44708
BEIDOU-3 M20            
1 44865U 19090B   26193.25267008 -.00000041  00000+0  00000+0 0  9991
2 44865  56.5819  61.9971 0014506 312.8069 195.7820  1.86231124 44683
JCSAT-18 (KACIFIC 1)    
1 44868U 19091A   26193.80656083 -.00000201  00000+0  00000+0 0  9999
2 44868   0.0465 228.9604 0000410  15.3239 126.7699  1.00273107 24261
CSG-1                   
1 44873U 19092A   26194.17794684  .00000199  00000+0  31501-4 0  9997
2 44873  97.8893  17.4048 0001487  89.8748 270.2636 14.82155876355321
CHEOPS                  
1 44874U 19092B   26193.47645125  .00000145  00000+0  38272-4 0  9998
2 44874  98.1506  21.3913 0011100  27.2306 332.9476 14.61981530349592
